NIMIQ 2                 
1 27632U 02062A   26063.48864072 -.00000076  00000+0  00000+0 0  9998
2 27632   9.2049  57.9824 0006544 289.1831 241.7830  1.00272481 43133
ANIK F2                 
1 28378U 04027A   26063.44350074 -.00000060  00000+0  00000+0 0  9990
2 28378   3.0142  80.8541 0003040 297.2329 192.6455  1.00272423 40217
ANIK F1R                
1 28868U 05036A   26063.13572759 -.00000086  00000+0  00000+0 0  9995
2 28868   4.0443  77.8955 0002892 299.7446  85.8143  1.00272119 45407
ANIK F3                 
1 31102U 07009A   26063.48864072 -.00000012  00000+0  00000+0 0  9991
2 31102   0.9271  85.2098 0002794 266.0795 228.1527  1.00273513 45511
NIMIQ 4                 
1 33373U 08044A   26063.34558462 -.00000233  00000+0  00000+0 0  9996
2 33373   0.0237 231.4219 0002588 117.7331 215.3391  1.00281974 63938
TELSTAR 11N             
1 34111U 09009A   26063.33794595 -.00000263  00000+0  00000+0 0  9990
2 34111   0.0202 137.5392 0002341 194.5952 274.0492  1.00271929 45199
TERRESTAR-1             
1 35496U 09035A   26063.48864072 -.00000065  00000+0  00000+0 0  9990
2 35496   5.0953  48.8345 0002934 301.3248 236.9811  1.00272115 61086
NIMIQ 5                 
1 35873U 09050A   26063.25322573 -.00000269  00000+0  00000+0 0  9992
2 35873   0.0535 271.2017 0002641  72.4525 196.7895  1.00273376 60290
SKYTERRA 1              
1 37218U 10061A   26063.06561393 -.00000128  00000+0  00000+0 0  9999
2 37218   4.9016  50.9140 0001603 293.9262  99.2594  1.00271469 56149
TELSTAR 14R             
1 37602U 11021A   26063.07324062 -.00000293  00000+0  00000+0 0  9997
2 37602   0.0365 269.7706 0002427  79.4879 135.9193  1.00272792 54785
NIMIQ 6                 
1 38342U 12026A   26063.30600315 -.00000185  00000+0  00000+0 0  9999
2 38342   0.0556 279.8002 0002623  59.4407 201.8624  1.00270970 49369
ANIK G1                 
1 39127U 13014A   26063.35669706 -.00000086  00000+0  00000+0 0  9993
2 39127   0.0553 270.7587 0003035  51.5919 220.8486  1.00271719 47205
TELSTAR 12V             
1 41036U 15068A   26063.38794803 -.00000131  00000+0  00000+0 0  9997
2 41036   0.0203 234.8927 0002409 112.5826 299.3135  1.00272414 37571
VIASAT-2                
1 42740U 17029A   26063.34003264 -.00000277  00000+0  00000+0 0  9990
2 42740   0.0258 249.8701 0000550 113.6701 211.0567  1.00273336 32152
LEO 1 (LEO VANTAGE 1)   
1 43113U 18004C   26063.31879630  .00006456  00000+0  44658-3 0  9999
2 43113  99.2485 327.9417 0353352  41.3399 321.3978 14.67122514422109
TELSTAR 19V             
1 43562U 18059A   26063.14448096 -.00000292  00000+0  00000+0 0  9998
2 43562   0.0201 169.6505 0000593 253.9650  87.2796  1.00272020 28096
TELSTAR 18V             
1 43611U 18069A   26063.69697546 -.00000304  00000+0  00000+0 0  9994
2 43611   0.0126 217.7036 0002083 127.2921 206.3483  1.00271198 27586
AMOS-17                 
1 44479U 19050A   26063.74032762  .00000098  00000+0  00000+0 0  9996
2 44479   0.0471 289.7995 0001454  51.5380 104.6294  1.00271291 24136
